[{"OBJECT_NAME":"LEMUR-2-ANDIS","OBJECT_ID":"2017-042P","EPOCH":"2026-03-09T13:25:33.116448","MEAN_MOTION":15.30557934,"ECCENTRICITY":0.0009101,"INCLINATION":97.3659,"RA_OF_ASC_NODE":249.795,"ARG_OF_PERICENTER":4.3248,"MEAN_ANOMALY":355.807,"EPHEMERIS_TYPE":0,"CLASSIFICATION_TYPE":"U","NORAD_CAT_ID":42838,"ELEMENT_SET_NO":999,"REV_AT_EPOCH":47319,"BSTAR":0.00079875,"MEAN_MOTION_DOT":0.00023598,"MEAN_MOTION_DDOT":0},{"OBJECT_NAME":"STARLINK-35989","OBJECT_ID":"2025-278AE","EPOCH":"2026-03-09T04:50:31.157664","MEAN_MOTION":15.27588589,"ECCENTRICITY":0.00015847,"INCLINATION":43.0011,"RA_OF_ASC_NODE":117.1875,"ARG_OF_PERICENTER":275.3817,"MEAN_ANOMALY":84.6854,"EPHEMERIS_TYPE":0,"CLASSIFICATION_TYPE":"U","NORAD_CAT_ID":66819,"ELEMENT_SET_NO":999,"REV_AT_EPOCH":1513,"BSTAR":0.0011589326,"MEAN_MOTION_DOT":0.00031775,"MEAN_MOTION_DDOT":0}]
